0 IRIDIUM 33 DEB
1 34520U 97051HM  13281.60416368  .00006394  00000-0  19981-2 0  8053
2 34520 086.3841 131.8865 0033046 322.4618 089.4392 14.40334041241927
0 IRIDIUM 33 DEB
1 34520U 97051HM  13283.14946385  .00008912  00000-0  27848-2 0  8061
2 34520 086.3842 131.2320 0032801 317.3525 182.2344 14.40365289242148
0 IRIDIUM 33 DEB
1 34520U 97051HM  13287.10610792  .00008072  00000-0  25196-2 0  8084
2 34520 086.3838 129.5562 0032295 303.9509 179.4288 14.40418547242715
0 IRIDIUM 33 DEB
1 34520U 97051HM  13288.77315345  .00011482  00000-0  35826-2 0  8095
2 34520 086.3831 128.8498 0032140 298.2058 184.2674 14.40454457242951
0 IRIDIUM 33 DEB
1 34520U 97051HM  13290.35778751  .00012071  00000-0  37645-2 0  8104
2 34520 086.3825 128.1784 0031979 292.8050 121.8674 14.40480079243188
0 IRIDIUM 33 DEB
1 34520U 97051HM  13292.51204524  .00010161  00000-0  31664-2 0  8110
2 34520 086.3823 127.2654 0031835 285.3755 133.7698 14.40520431243491
0 IRIDIUM 33 DEB
1 34520U 97051HM  13294.52063447  .00012568  00000-0  39140-2 0  8121
2 34520 086.3826 126.4141 0031731 278.4309 110.5306 14.40554262243789
